<?xml version="1.0" encoding="UTF-8"?>
<gpx version="1.1" creator="Au bout du chemin" xmlns="http://www.topografix.com/GPX/1/1">
  <trk>
    <name>La 8,5 km</name>
    <trkseg>
      <trkpt lat="43.498696" lon="-0.80309"></trkpt>
      <trkpt lat="43.498876" lon="-0.803173"></trkpt>
      <trkpt lat="43.498989" lon="-0.803437"></trkpt>
      <trkpt lat="43.499124" lon="-0.803721"></trkpt>
      <trkpt lat="43.499255" lon="-0.804005"></trkpt>
      <trkpt lat="43.49938" lon="-0.804285"></trkpt>
      <trkpt lat="43.499501" lon="-0.804567"></trkpt>
      <trkpt lat="43.499615" lon="-0.804853"></trkpt>
      <trkpt lat="43.499719" lon="-0.805146"></trkpt>
      <trkpt lat="43.499876" lon="-0.805369"></trkpt>
      <trkpt lat="43.499989" lon="-0.805648"></trkpt>
      <trkpt lat="43.500095" lon="-0.805944"></trkpt>
      <trkpt lat="43.500216" lon="-0.806204"></trkpt>
      <trkpt lat="43.500366" lon="-0.806444"></trkpt>
      <trkpt lat="43.500432" lon="-0.806708"></trkpt>
      <trkpt lat="43.500277" lon="-0.806918"></trkpt>
      <trkpt lat="43.500113" lon="-0.807134"></trkpt>
      <trkpt lat="43.499936" lon="-0.807363"></trkpt>
      <trkpt lat="43.499721" lon="-0.807494"></trkpt>
      <trkpt lat="43.499557" lon="-0.807692"></trkpt>
      <trkpt lat="43.499695" lon="-0.807895"></trkpt>
      <trkpt lat="43.499917" lon="-0.807969"></trkpt>
      <trkpt lat="43.500133" lon="-0.808095"></trkpt>
      <trkpt lat="43.500323" lon="-0.808268"></trkpt>
      <trkpt lat="43.500526" lon="-0.808435"></trkpt>
      <trkpt lat="43.50075" lon="-0.808477"></trkpt>
      <trkpt lat="43.50098" lon="-0.808391"></trkpt>
      <trkpt lat="43.501188" lon="-0.808221"></trkpt>
      <trkpt lat="43.501365" lon="-0.807993"></trkpt>
      <trkpt lat="43.501552" lon="-0.807781"></trkpt>
      <trkpt lat="43.501736" lon="-0.807587"></trkpt>
      <trkpt lat="43.501936" lon="-0.807396"></trkpt>
      <trkpt lat="43.502154" lon="-0.807272"></trkpt>
      <trkpt lat="43.502339" lon="-0.807086"></trkpt>
      <trkpt lat="43.5025" lon="-0.806869"></trkpt>
      <trkpt lat="43.502716" lon="-0.806741"></trkpt>
      <trkpt lat="43.502918" lon="-0.806582"></trkpt>
      <trkpt lat="43.503028" lon="-0.806329"></trkpt>
      <trkpt lat="43.502994" lon="-0.806032"></trkpt>
      <trkpt lat="43.502946" lon="-0.805727"></trkpt>
      <trkpt lat="43.502916" lon="-0.805421"></trkpt>
      <trkpt lat="43.502906" lon="-0.805093"></trkpt>
      <trkpt lat="43.502943" lon="-0.804771"></trkpt>
      <trkpt lat="43.502971" lon="-0.804443"></trkpt>
      <trkpt lat="43.502932" lon="-0.804119"></trkpt>
      <trkpt lat="43.502809" lon="-0.803858"></trkpt>
      <trkpt lat="43.502626" lon="-0.803696"></trkpt>
      <trkpt lat="43.502603" lon="-0.803414"></trkpt>
      <trkpt lat="43.502664" lon="-0.803107"></trkpt>
      <trkpt lat="43.50269" lon="-0.802796"></trkpt>
      <trkpt lat="43.50266" lon="-0.802496"></trkpt>
      <trkpt lat="43.502728" lon="-0.802201"></trkpt>
      <trkpt lat="43.502816" lon="-0.801929"></trkpt>
      <trkpt lat="43.502987" lon="-0.801788"></trkpt>
      <trkpt lat="43.503061" lon="-0.801541"></trkpt>
      <trkpt lat="43.503263" lon="-0.801451"></trkpt>
      <trkpt lat="43.503469" lon="-0.801328"></trkpt>
      <trkpt lat="43.503699" lon="-0.801232"></trkpt>
      <trkpt lat="43.503917" lon="-0.801103"></trkpt>
      <trkpt lat="43.504126" lon="-0.800975"></trkpt>
      <trkpt lat="43.504198" lon="-0.800697"></trkpt>
      <trkpt lat="43.504196" lon="-0.800369"></trkpt>
      <trkpt lat="43.504159" lon="-0.800089"></trkpt>
      <trkpt lat="43.504335" lon="-0.799954"></trkpt>
      <trkpt lat="43.504558" lon="-0.799938"></trkpt>
      <trkpt lat="43.504789" lon="-0.799948"></trkpt>
      <trkpt lat="43.505017" lon="-0.799969"></trkpt>
      <trkpt lat="43.505244" lon="-0.799981"></trkpt>
      <trkpt lat="43.505471" lon="-0.799963"></trkpt>
      <trkpt lat="43.505683" lon="-0.799832"></trkpt>
      <trkpt lat="43.505894" lon="-0.79971"></trkpt>
      <trkpt lat="43.506097" lon="-0.799571"></trkpt>
      <trkpt lat="43.506301" lon="-0.799434"></trkpt>
      <trkpt lat="43.506512" lon="-0.799319"></trkpt>
      <trkpt lat="43.506663" lon="-0.799088"></trkpt>
      <trkpt lat="43.506644" lon="-0.798766"></trkpt>
      <trkpt lat="43.50666" lon="-0.798457"></trkpt>
      <trkpt lat="43.506821" lon="-0.798272"></trkpt>
      <trkpt lat="43.507017" lon="-0.798167"></trkpt>
      <trkpt lat="43.50711" lon="-0.797887"></trkpt>
      <trkpt lat="43.507223" lon="-0.79764"></trkpt>
      <trkpt lat="43.507439" lon="-0.797602"></trkpt>
      <trkpt lat="43.507674" lon="-0.797636"></trkpt>
      <trkpt lat="43.507915" lon="-0.797689"></trkpt>
      <trkpt lat="43.508151" lon="-0.797734"></trkpt>
      <trkpt lat="43.508393" lon="-0.797788"></trkpt>
      <trkpt lat="43.508613" lon="-0.797809"></trkpt>
      <trkpt lat="43.50881" lon="-0.797653"></trkpt>
      <trkpt lat="43.509013" lon="-0.797476"></trkpt>
      <trkpt lat="43.509226" lon="-0.79732"></trkpt>
      <trkpt lat="43.509445" lon="-0.797179"></trkpt>
      <trkpt lat="43.509654" lon="-0.79704"></trkpt>
      <trkpt lat="43.509864" lon="-0.796896"></trkpt>
      <trkpt lat="43.510058" lon="-0.796734"></trkpt>
      <trkpt lat="43.510126" lon="-0.796456"></trkpt>
      <trkpt lat="43.510071" lon="-0.796157"></trkpt>
      <trkpt lat="43.510101" lon="-0.79587"></trkpt>
      <trkpt lat="43.510311" lon="-0.79579"></trkpt>
      <trkpt lat="43.510555" lon="-0.795756"></trkpt>
      <trkpt lat="43.51079" lon="-0.795699"></trkpt>
      <trkpt lat="43.511023" lon="-0.795619"></trkpt>
      <trkpt lat="43.511244" lon="-0.795552"></trkpt>
      <trkpt lat="43.511466" lon="-0.795476"></trkpt>
      <trkpt lat="43.511691" lon="-0.795406"></trkpt>
      <trkpt lat="43.511913" lon="-0.795345"></trkpt>
      <trkpt lat="43.512143" lon="-0.795318"></trkpt>
      <trkpt lat="43.512371" lon="-0.79526"></trkpt>
      <trkpt lat="43.512585" lon="-0.795169"></trkpt>
      <trkpt lat="43.512796" lon="-0.79508"></trkpt>
      <trkpt lat="43.513018" lon="-0.795041"></trkpt>
      <trkpt lat="43.513235" lon="-0.794974"></trkpt>
      <trkpt lat="43.513438" lon="-0.794869"></trkpt>
      <trkpt lat="43.513549" lon="-0.794609"></trkpt>
      <trkpt lat="43.513641" lon="-0.794283"></trkpt>
      <trkpt lat="43.513729" lon="-0.793981"></trkpt>
      <trkpt lat="43.513888" lon="-0.793753"></trkpt>
      <trkpt lat="43.514114" lon="-0.793676"></trkpt>
      <trkpt lat="43.514337" lon="-0.793613"></trkpt>
      <trkpt lat="43.514481" lon="-0.793359"></trkpt>
      <trkpt lat="43.514627" lon="-0.79314"></trkpt>
      <trkpt lat="43.514649" lon="-0.792841"></trkpt>
      <trkpt lat="43.514593" lon="-0.792513"></trkpt>
      <trkpt lat="43.514517" lon="-0.792186"></trkpt>
      <trkpt lat="43.514437" lon="-0.791868"></trkpt>
      <trkpt lat="43.514497" lon="-0.791572"></trkpt>
      <trkpt lat="43.514662" lon="-0.791476"></trkpt>
      <trkpt lat="43.51469" lon="-0.791675"></trkpt>
      <trkpt lat="43.514877" lon="-0.791638"></trkpt>
      <trkpt lat="43.515084" lon="-0.791507"></trkpt>
      <trkpt lat="43.515244" lon="-0.791273"></trkpt>
      <trkpt lat="43.515447" lon="-0.791117"></trkpt>
      <trkpt lat="43.515677" lon="-0.791022"></trkpt>
      <trkpt lat="43.51588" lon="-0.790988"></trkpt>
      <trkpt lat="43.515924" lon="-0.791253"></trkpt>
      <trkpt lat="43.515907" lon="-0.791577"></trkpt>
      <trkpt lat="43.515687" lon="-0.791778"></trkpt>
      <trkpt lat="43.515583" lon="-0.792002"></trkpt>
      <trkpt lat="43.515809" lon="-0.792084"></trkpt>
      <trkpt lat="43.515852" lon="-0.792426"></trkpt>
      <trkpt lat="43.515819" lon="-0.792751"></trkpt>
      <trkpt lat="43.515778" lon="-0.793076"></trkpt>
      <trkpt lat="43.515741" lon="-0.793395"></trkpt>
      <trkpt lat="43.515731" lon="-0.793714"></trkpt>
      <trkpt lat="43.51562" lon="-0.794"></trkpt>
      <trkpt lat="43.515413" lon="-0.794167"></trkpt>
      <trkpt lat="43.515191" lon="-0.794249"></trkpt>
      <trkpt lat="43.515031" lon="-0.794461"></trkpt>
      <trkpt lat="43.514913" lon="-0.794722"></trkpt>
      <trkpt lat="43.514809" lon="-0.795002"></trkpt>
      <trkpt lat="43.514763" lon="-0.795306"></trkpt>
      <trkpt lat="43.514679" lon="-0.795618"></trkpt>
      <trkpt lat="43.514563" lon="-0.795904"></trkpt>
      <trkpt lat="43.514404" lon="-0.796123"></trkpt>
      <trkpt lat="43.514223" lon="-0.796322"></trkpt>
      <trkpt lat="43.514144" lon="-0.7966"></trkpt>
      <trkpt lat="43.514135" lon="-0.79691"></trkpt>
      <trkpt lat="43.514128" lon="-0.797233"></trkpt>
      <trkpt lat="43.51414" lon="-0.797556"></trkpt>
      <trkpt lat="43.514155" lon="-0.797913"></trkpt>
      <trkpt lat="43.514176" lon="-0.798276"></trkpt>
      <trkpt lat="43.51414" lon="-0.798586"></trkpt>
      <trkpt lat="43.514205" lon="-0.798891"></trkpt>
      <trkpt lat="43.514254" lon="-0.799204"></trkpt>
      <trkpt lat="43.51422" lon="-0.799509"></trkpt>
      <trkpt lat="43.5142" lon="-0.799844"></trkpt>
      <trkpt lat="43.514172" lon="-0.800176"></trkpt>
      <trkpt lat="43.514163" lon="-0.800484"></trkpt>
      <trkpt lat="43.5142" lon="-0.800786"></trkpt>
      <trkpt lat="43.514184" lon="-0.801094"></trkpt>
      <trkpt lat="43.514201" lon="-0.80142"></trkpt>
      <trkpt lat="43.51424" lon="-0.80173"></trkpt>
      <trkpt lat="43.514251" lon="-0.802071"></trkpt>
      <trkpt lat="43.514249" lon="-0.802409"></trkpt>
      <trkpt lat="43.514353" lon="-0.802685"></trkpt>
      <trkpt lat="43.514372" lon="-0.803014"></trkpt>
      <trkpt lat="43.514409" lon="-0.803344"></trkpt>
      <trkpt lat="43.514447" lon="-0.803677"></trkpt>
      <trkpt lat="43.514466" lon="-0.804023"></trkpt>
      <trkpt lat="43.514484" lon="-0.80435"></trkpt>
      <trkpt lat="43.514491" lon="-0.804666"></trkpt>
      <trkpt lat="43.514523" lon="-0.804981"></trkpt>
      <trkpt lat="43.514573" lon="-0.805283"></trkpt>
      <trkpt lat="43.514546" lon="-0.805587"></trkpt>
      <trkpt lat="43.514443" lon="-0.805873"></trkpt>
      <trkpt lat="43.514431" lon="-0.806193"></trkpt>
      <trkpt lat="43.514383" lon="-0.806525"></trkpt>
      <trkpt lat="43.514303" lon="-0.806843"></trkpt>
      <trkpt lat="43.514259" lon="-0.807175"></trkpt>
      <trkpt lat="43.514202" lon="-0.807566"></trkpt>
      <trkpt lat="43.51409" lon="-0.807847"></trkpt>
      <trkpt lat="43.513931" lon="-0.808069"></trkpt>
      <trkpt lat="43.513786" lon="-0.808321"></trkpt>
      <trkpt lat="43.513616" lon="-0.808548"></trkpt>
      <trkpt lat="43.51342" lon="-0.808764"></trkpt>
      <trkpt lat="43.513219" lon="-0.808919"></trkpt>
      <trkpt lat="43.513024" lon="-0.809069"></trkpt>
      <trkpt lat="43.512863" lon="-0.809284"></trkpt>
      <trkpt lat="43.512708" lon="-0.809532"></trkpt>
      <trkpt lat="43.512593" lon="-0.809827"></trkpt>
      <trkpt lat="43.512499" lon="-0.810127"></trkpt>
      <trkpt lat="43.512442" lon="-0.810442"></trkpt>
      <trkpt lat="43.512398" lon="-0.810753"></trkpt>
      <trkpt lat="43.512372" lon="-0.811072"></trkpt>
      <trkpt lat="43.512361" lon="-0.811393"></trkpt>
      <trkpt lat="43.512347" lon="-0.811702"></trkpt>
      <trkpt lat="43.512298" lon="-0.812009"></trkpt>
      <trkpt lat="43.512218" lon="-0.812307"></trkpt>
      <trkpt lat="43.51221" lon="-0.812618"></trkpt>
      <trkpt lat="43.512221" lon="-0.812952"></trkpt>
      <trkpt lat="43.512194" lon="-0.813257"></trkpt>
      <trkpt lat="43.51217" lon="-0.81355"></trkpt>
      <trkpt lat="43.512294" lon="-0.813811"></trkpt>
      <trkpt lat="43.512536" lon="-0.813959"></trkpt>
      <trkpt lat="43.512756" lon="-0.814061"></trkpt>
      <trkpt lat="43.512876" lon="-0.814288"></trkpt>
      <trkpt lat="43.513085" lon="-0.814328"></trkpt>
      <trkpt lat="43.513159" lon="-0.8146"></trkpt>
      <trkpt lat="43.513197" lon="-0.814921"></trkpt>
      <trkpt lat="43.513279" lon="-0.815215"></trkpt>
      <trkpt lat="43.513431" lon="-0.815433"></trkpt>
      <trkpt lat="43.513549" lon="-0.815686"></trkpt>
      <trkpt lat="43.513572" lon="-0.815907"></trkpt>
      <trkpt lat="43.513627" lon="-0.815679"></trkpt>
      <trkpt lat="43.513775" lon="-0.815445"></trkpt>
      <trkpt lat="43.513948" lon="-0.815235"></trkpt>
      <trkpt lat="43.514143" lon="-0.815269"></trkpt>
      <trkpt lat="43.514237" lon="-0.815532"></trkpt>
      <trkpt lat="43.514384" lon="-0.815768"></trkpt>
      <trkpt lat="43.514493" lon="-0.816042"></trkpt>
      <trkpt lat="43.514562" lon="-0.816346"></trkpt>
      <trkpt lat="43.514703" lon="-0.816602"></trkpt>
      <trkpt lat="43.514918" lon="-0.816766"></trkpt>
      <trkpt lat="43.515031" lon="-0.817033"></trkpt>
      <trkpt lat="43.515074" lon="-0.817346"></trkpt>
      <trkpt lat="43.515151" lon="-0.817637"></trkpt>
      <trkpt lat="43.515158" lon="-0.817948"></trkpt>
      <trkpt lat="43.515166" lon="-0.818295"></trkpt>
      <trkpt lat="43.515194" lon="-0.818641"></trkpt>
      <trkpt lat="43.5152" lon="-0.818977"></trkpt>
      <trkpt lat="43.515209" lon="-0.819296"></trkpt>
      <trkpt lat="43.515412" lon="-0.819479"></trkpt>
      <trkpt lat="43.515641" lon="-0.819578"></trkpt>
      <trkpt lat="43.51585" lon="-0.819698"></trkpt>
      <trkpt lat="43.515963" lon="-0.819955"></trkpt>
      <trkpt lat="43.516078" lon="-0.82025"></trkpt>
      <trkpt lat="43.516162" lon="-0.820534"></trkpt>
      <trkpt lat="43.516105" lon="-0.820825"></trkpt>
      <trkpt lat="43.516013" lon="-0.821118"></trkpt>
      <trkpt lat="43.515917" lon="-0.82143"></trkpt>
      <trkpt lat="43.515795" lon="-0.821718"></trkpt>
      <trkpt lat="43.515622" lon="-0.821901"></trkpt>
      <trkpt lat="43.515392" lon="-0.821874"></trkpt>
      <trkpt lat="43.515155" lon="-0.821831"></trkpt>
      <trkpt lat="43.51492" lon="-0.821843"></trkpt>
      <trkpt lat="43.514716" lon="-0.821957"></trkpt>
      <trkpt lat="43.514563" lon="-0.822189"></trkpt>
      <trkpt lat="43.514419" lon="-0.82242"></trkpt>
      <trkpt lat="43.514251" lon="-0.822617"></trkpt>
      <trkpt lat="43.514047" lon="-0.822766"></trkpt>
      <trkpt lat="43.513842" lon="-0.822926"></trkpt>
      <trkpt lat="43.513642" lon="-0.823103"></trkpt>
      <trkpt lat="43.513436" lon="-0.823263"></trkpt>
      <trkpt lat="43.513231" lon="-0.82342"></trkpt>
      <trkpt lat="43.513046" lon="-0.823598"></trkpt>
      <trkpt lat="43.513011" lon="-0.82389"></trkpt>
      <trkpt lat="43.512879" lon="-0.82414"></trkpt>
      <trkpt lat="43.512703" lon="-0.82437"></trkpt>
      <trkpt lat="43.512527" lon="-0.824564"></trkpt>
      <trkpt lat="43.512346" lon="-0.824747"></trkpt>
      <trkpt lat="43.512173" lon="-0.824969"></trkpt>
      <trkpt lat="43.512006" lon="-0.825178"></trkpt>
      <trkpt lat="43.511831" lon="-0.825395"></trkpt>
      <trkpt lat="43.511648" lon="-0.825601"></trkpt>
      <trkpt lat="43.511452" lon="-0.825813"></trkpt>
      <trkpt lat="43.511266" lon="-0.826028"></trkpt>
      <trkpt lat="43.511083" lon="-0.826221"></trkpt>
      <trkpt lat="43.510894" lon="-0.826384"></trkpt>
      <trkpt lat="43.510707" lon="-0.826578"></trkpt>
      <trkpt lat="43.510513" lon="-0.826767"></trkpt>
      <trkpt lat="43.510326" lon="-0.826952"></trkpt>
      <trkpt lat="43.510149" lon="-0.827114"></trkpt>
      <trkpt lat="43.50997" lon="-0.826995"></trkpt>
      <trkpt lat="43.50986" lon="-0.826723"></trkpt>
      <trkpt lat="43.509741" lon="-0.826439"></trkpt>
      <trkpt lat="43.509638" lon="-0.826136"></trkpt>
      <trkpt lat="43.509537" lon="-0.825836"></trkpt>
      <trkpt lat="43.509412" lon="-0.825555"></trkpt>
      <trkpt lat="43.509241" lon="-0.825344"></trkpt>
      <trkpt lat="43.509103" lon="-0.825115"></trkpt>
      <trkpt lat="43.50889" lon="-0.825105"></trkpt>
      <trkpt lat="43.508656" lon="-0.825096"></trkpt>
      <trkpt lat="43.508476" lon="-0.824917"></trkpt>
      <trkpt lat="43.508311" lon="-0.82471"></trkpt>
      <trkpt lat="43.508157" lon="-0.82448"></trkpt>
      <trkpt lat="43.508007" lon="-0.824241"></trkpt>
      <trkpt lat="43.507848" lon="-0.824007"></trkpt>
      <trkpt lat="43.507687" lon="-0.823775"></trkpt>
      <trkpt lat="43.507507" lon="-0.823582"></trkpt>
      <trkpt lat="43.507316" lon="-0.823389"></trkpt>
      <trkpt lat="43.50713" lon="-0.823179"></trkpt>
      <trkpt lat="43.50694" lon="-0.822971"></trkpt>
      <trkpt lat="43.506742" lon="-0.822781"></trkpt>
      <trkpt lat="43.506566" lon="-0.822564"></trkpt>
      <trkpt lat="43.506444" lon="-0.822294"></trkpt>
      <trkpt lat="43.506324" lon="-0.82202"></trkpt>
      <trkpt lat="43.506121" lon="-0.821865"></trkpt>
      <trkpt lat="43.505907" lon="-0.821656"></trkpt>
      <trkpt lat="43.50568" lon="-0.82151"></trkpt>
      <trkpt lat="43.505458" lon="-0.821413"></trkpt>
      <trkpt lat="43.505245" lon="-0.821294"></trkpt>
      <trkpt lat="43.505051" lon="-0.821126"></trkpt>
      <trkpt lat="43.504877" lon="-0.820934"></trkpt>
      <trkpt lat="43.504674" lon="-0.820798"></trkpt>
      <trkpt lat="43.504471" lon="-0.820623"></trkpt>
      <trkpt lat="43.504293" lon="-0.820394"></trkpt>
      <trkpt lat="43.504131" lon="-0.820153"></trkpt>
      <trkpt lat="43.503956" lon="-0.819946"></trkpt>
      <trkpt lat="43.503764" lon="-0.819778"></trkpt>
      <trkpt lat="43.503602" lon="-0.81955"></trkpt>
      <trkpt lat="43.50344" lon="-0.819326"></trkpt>
      <trkpt lat="43.503261" lon="-0.819135"></trkpt>
      <trkpt lat="43.503105" lon="-0.81888"></trkpt>
      <trkpt lat="43.50295" lon="-0.818614"></trkpt>
      <trkpt lat="43.502786" lon="-0.818394"></trkpt>
      <trkpt lat="43.50261" lon="-0.818189"></trkpt>
      <trkpt lat="43.502425" lon="-0.817988"></trkpt>
      <trkpt lat="43.502222" lon="-0.81785"></trkpt>
      <trkpt lat="43.502044" lon="-0.817675"></trkpt>
      <trkpt lat="43.501832" lon="-0.81759"></trkpt>
      <trkpt lat="43.501666" lon="-0.817379"></trkpt>
      <trkpt lat="43.501458" lon="-0.817195"></trkpt>
      <trkpt lat="43.501304" lon="-0.816956"></trkpt>
      <trkpt lat="43.501198" lon="-0.816686"></trkpt>
      <trkpt lat="43.501054" lon="-0.816449"></trkpt>
      <trkpt lat="43.500895" lon="-0.816205"></trkpt>
      <trkpt lat="43.500737" lon="-0.815961"></trkpt>
      <trkpt lat="43.500605" lon="-0.815713"></trkpt>
      <trkpt lat="43.500442" lon="-0.815507"></trkpt>
      <trkpt lat="43.500289" lon="-0.815282"></trkpt>
      <trkpt lat="43.50013" lon="-0.815062"></trkpt>
      <trkpt lat="43.499961" lon="-0.814836"></trkpt>
      <trkpt lat="43.499732" lon="-0.81476"></trkpt>
      <trkpt lat="43.49951" lon="-0.814678"></trkpt>
      <trkpt lat="43.499323" lon="-0.814489"></trkpt>
      <trkpt lat="43.499209" lon="-0.814208"></trkpt>
      <trkpt lat="43.499068" lon="-0.813946"></trkpt>
      <trkpt lat="43.498932" lon="-0.813702"></trkpt>
      <trkpt lat="43.49891" lon="-0.813385"></trkpt>
      <trkpt lat="43.498921" lon="-0.81308"></trkpt>
      <trkpt lat="43.499065" lon="-0.81283"></trkpt>
      <trkpt lat="43.499164" lon="-0.812539"></trkpt>
      <trkpt lat="43.49925" lon="-0.812242"></trkpt>
      <trkpt lat="43.499321" lon="-0.811941"></trkpt>
      <trkpt lat="43.499352" lon="-0.811651"></trkpt>
      <trkpt lat="43.499182" lon="-0.811473"></trkpt>
      <trkpt lat="43.498998" lon="-0.811266"></trkpt>
      <trkpt lat="43.498859" lon="-0.810995"></trkpt>
      <trkpt lat="43.498772" lon="-0.810712"></trkpt>
      <trkpt lat="43.498748" lon="-0.810401"></trkpt>
      <trkpt lat="43.498773" lon="-0.810152"></trkpt>
      <trkpt lat="43.498748" lon="-0.810401"></trkpt>
    </trkseg>
  </trk>
</gpx>