<?xml version="1.0" encoding="UTF-8"?>
<gpx version="1.1" creator="Au bout du chemin" xmlns="http://www.topografix.com/GPX/1/1">
  <trk>
    <name>La boucle des Barricots</name>
    <trkseg>
      <trkpt lat="43.498748" lon="-0.810401"></trkpt>
      <trkpt lat="43.498772" lon="-0.810712"></trkpt>
      <trkpt lat="43.498859" lon="-0.810995"></trkpt>
      <trkpt lat="43.498998" lon="-0.811266"></trkpt>
      <trkpt lat="43.499182" lon="-0.811473"></trkpt>
      <trkpt lat="43.499352" lon="-0.811651"></trkpt>
      <trkpt lat="43.499321" lon="-0.811941"></trkpt>
      <trkpt lat="43.49925" lon="-0.812242"></trkpt>
      <trkpt lat="43.499164" lon="-0.812539"></trkpt>
      <trkpt lat="43.499065" lon="-0.81283"></trkpt>
      <trkpt lat="43.498921" lon="-0.81308"></trkpt>
      <trkpt lat="43.49891" lon="-0.813385"></trkpt>
      <trkpt lat="43.498932" lon="-0.813702"></trkpt>
      <trkpt lat="43.499068" lon="-0.813946"></trkpt>
      <trkpt lat="43.499209" lon="-0.814208"></trkpt>
      <trkpt lat="43.499323" lon="-0.814489"></trkpt>
      <trkpt lat="43.49951" lon="-0.814678"></trkpt>
      <trkpt lat="43.499732" lon="-0.81476"></trkpt>
      <trkpt lat="43.499961" lon="-0.814836"></trkpt>
      <trkpt lat="43.50013" lon="-0.815062"></trkpt>
      <trkpt lat="43.500289" lon="-0.815282"></trkpt>
      <trkpt lat="43.500442" lon="-0.815507"></trkpt>
      <trkpt lat="43.500605" lon="-0.815713"></trkpt>
      <trkpt lat="43.500737" lon="-0.815961"></trkpt>
      <trkpt lat="43.500895" lon="-0.816205"></trkpt>
      <trkpt lat="43.501054" lon="-0.816449"></trkpt>
      <trkpt lat="43.501198" lon="-0.816686"></trkpt>
      <trkpt lat="43.501304" lon="-0.816956"></trkpt>
      <trkpt lat="43.501458" lon="-0.817195"></trkpt>
      <trkpt lat="43.501666" lon="-0.817379"></trkpt>
      <trkpt lat="43.501832" lon="-0.81759"></trkpt>
      <trkpt lat="43.502044" lon="-0.817675"></trkpt>
      <trkpt lat="43.502222" lon="-0.81785"></trkpt>
      <trkpt lat="43.502425" lon="-0.817988"></trkpt>
      <trkpt lat="43.50261" lon="-0.818189"></trkpt>
      <trkpt lat="43.502786" lon="-0.818394"></trkpt>
      <trkpt lat="43.50295" lon="-0.818614"></trkpt>
      <trkpt lat="43.503105" lon="-0.81888"></trkpt>
      <trkpt lat="43.503261" lon="-0.819135"></trkpt>
      <trkpt lat="43.50344" lon="-0.819326"></trkpt>
      <trkpt lat="43.503602" lon="-0.81955"></trkpt>
      <trkpt lat="43.503764" lon="-0.819778"></trkpt>
      <trkpt lat="43.503956" lon="-0.819946"></trkpt>
      <trkpt lat="43.504131" lon="-0.820153"></trkpt>
      <trkpt lat="43.503956" lon="-0.819946"></trkpt>
      <trkpt lat="43.503764" lon="-0.819778"></trkpt>
      <trkpt lat="43.503602" lon="-0.81955"></trkpt>
      <trkpt lat="43.50344" lon="-0.819326"></trkpt>
      <trkpt lat="43.503261" lon="-0.819135"></trkpt>
      <trkpt lat="43.503105" lon="-0.81888"></trkpt>
      <trkpt lat="43.50295" lon="-0.818614"></trkpt>
      <trkpt lat="43.502786" lon="-0.818394"></trkpt>
      <trkpt lat="43.50261" lon="-0.818189"></trkpt>
      <trkpt lat="43.502425" lon="-0.817988"></trkpt>
      <trkpt lat="43.502222" lon="-0.81785"></trkpt>
      <trkpt lat="43.502044" lon="-0.817675"></trkpt>
      <trkpt lat="43.501832" lon="-0.81759"></trkpt>
      <trkpt lat="43.501666" lon="-0.817379"></trkpt>
      <trkpt lat="43.501458" lon="-0.817195"></trkpt>
      <trkpt lat="43.501304" lon="-0.816956"></trkpt>
      <trkpt lat="43.501198" lon="-0.816686"></trkpt>
      <trkpt lat="43.501054" lon="-0.816449"></trkpt>
      <trkpt lat="43.500895" lon="-0.816205"></trkpt>
      <trkpt lat="43.500737" lon="-0.815961"></trkpt>
      <trkpt lat="43.500605" lon="-0.815713"></trkpt>
      <trkpt lat="43.500442" lon="-0.815507"></trkpt>
      <trkpt lat="43.500289" lon="-0.815282"></trkpt>
      <trkpt lat="43.50013" lon="-0.815062"></trkpt>
      <trkpt lat="43.499961" lon="-0.814836"></trkpt>
      <trkpt lat="43.499732" lon="-0.81476"></trkpt>
      <trkpt lat="43.49951" lon="-0.814678"></trkpt>
      <trkpt lat="43.499323" lon="-0.814489"></trkpt>
      <trkpt lat="43.499209" lon="-0.814208"></trkpt>
      <trkpt lat="43.499068" lon="-0.813946"></trkpt>
      <trkpt lat="43.498932" lon="-0.813702"></trkpt>
      <trkpt lat="43.49891" lon="-0.813385"></trkpt>
      <trkpt lat="43.498921" lon="-0.81308"></trkpt>
      <trkpt lat="43.499065" lon="-0.81283"></trkpt>
      <trkpt lat="43.499164" lon="-0.812539"></trkpt>
      <trkpt lat="43.49925" lon="-0.812242"></trkpt>
      <trkpt lat="43.499321" lon="-0.811941"></trkpt>
      <trkpt lat="43.499352" lon="-0.811651"></trkpt>
      <trkpt lat="43.499182" lon="-0.811473"></trkpt>
      <trkpt lat="43.498998" lon="-0.811266"></trkpt>
      <trkpt lat="43.498859" lon="-0.810995"></trkpt>
      <trkpt lat="43.498772" lon="-0.810712"></trkpt>
      <trkpt lat="43.498748" lon="-0.810401"></trkpt>
      <trkpt lat="43.498773" lon="-0.810152"></trkpt>
      <trkpt lat="43.498748" lon="-0.810401"></trkpt>
    </trkseg>
  </trk>
</gpx>